line1,line2,validFromUtcTime
1 00000U 00000E   26001.00000000  .00000000  00000-0  27772-4 0    01,2 00000  89.0018   0.3303 0010201 269.9360 345.2099 13.55272069    08,2026-01-01T00:00:00Z
1 00000U 00000E   26002.00000000  .00000000  00000-0  27772-4 0    02,2 00000  89.0012   0.2286 0010199 266.2246 185.0290 13.55261357    01,2026-01-02T00:00:00Z
